{
  "type": "FeatureCollection",
  "features": [
    {
      "type": "Feature",
      "properties": {
        "norad_id": 66481,
        "name": "STARLINK-35698",
        "group": "last-30-days",
        "lat": 22.897961166609342,
        "lon": 142.03838988618037,
        "alt_km": 408.26988119473026,
        "timestamp": "2025-12-05T04:52:14.141803+00:00",
        "meta_object_name": "STARLINK-35698",
        "meta_object_id": "2025-262AB",
        "meta_epoch": "2025-12-04T18:00:02.000160",
        "meta_mean_motion": 15.53911253,
        "meta_eccentricity": 0.0001609,
        "meta_inclination": 42.9995,
        "meta_ra_of_asc_node": 117.7433,
        "meta_arg_of_pericenter": 279.4699,
        "meta_mean_anomaly": 100.4073,
        "meta_ephemeris_type": 0,
        "meta_classification_type": "U",
        "meta_norad_cat_id": 66481,
        "meta_element_set_no": 999,
        "meta_rev_at_epoch": 435,
        "meta_bstar": -0.036369,
        "meta_mean_motion_dot": -0.02134803,
        "meta_mean_motion_ddot": 0,
        "tle_line1": "1 66481U 25262AB  25338.75002315 -.02134803  00000+0 -36369-1 0  9996",
        "tle_line2": "2 66481  42.9995 117.7433 0001609 279.4699 100.4073 15.53911253  4355"
      },
      "geometry": {
        "type": "Point",
        "coordinates": [
          142.03838988618037,
          22.897961166609342
        ]
      }
    },
    {
      "type": "Feature",
      "properties": {
        "norad_id": 66482,
        "name": "STARLINK-35648",
        "group": "last-30-days",
        "lat": 24.055663411774017,
        "lon": 143.7030040051353,
        "alt_km": 408.0158956342284,
        "timestamp": "2025-12-05T04:52:14.141813+00:00",
        "meta_object_name": "STARLINK-35648",
        "meta_object_id": "2025-262AC",
        "meta_epoch": "2025-12-04T18:00:02.000160",
        "meta_mean_motion": 15.53908425,
        "meta_eccentricity": 0.0001619,
        "meta_inclination": 42.9996,
        "meta_ra_of_asc_node": 117.7386,
        "meta_arg_of_pericenter": 283.2909,
        "meta_mean_anomaly": 98.5019,
        "meta_ephemeris_type": 0,
        "meta_classification_type": "U",
        "meta_norad_cat_id": 66482,
        "meta_element_set_no": 999,
        "meta_rev_at_epoch": 419,
        "meta_bstar": -0.036236,
        "meta_mean_motion_dot": -0.0212767,
        "meta_mean_motion_ddot": 0,
        "tle_line1": "1 66482U 25262AC  25338.75002315 -.02127670  00000+0 -36236-1 0  9994",
        "tle_line2": "2 66482  42.9996 117.7386 0001619 283.2909  98.5019 15.53908425  4198"
      },
      "geometry": {
        "type": "Point",
        "coordinates": [
          143.7030040051353,
          24.055663411774017
        ]
      }
    },
    {
      "type": "Feature",
      "properties": {
        "norad_id": 66483,
        "name": "STARLINK-35654",
        "group": "last-30-days",
        "lat": 25.1943693136489,
        "lon": 145.39588794477842,
        "alt_km": 407.97287573106496,
        "timestamp": "2025-12-05T04:52:14.141844+00:00",
        "meta_object_name": "STARLINK-35654",
        "meta_object_id": "2025-262AD",
        "meta_epoch": "2025-12-04T18:00:02.000160",
        "meta_mean_motion": 15.5390903,
        "meta_eccentricity": 0.0001651,
        "meta_inclination": 42.9998,
        "meta_ra_of_asc_node": 117.733,
        "meta_arg_of_pericenter": 280.1689,
        "meta_mean_anomaly": 103.5427,
        "meta_ephemeris_type": 0,
        "meta_classification_type": "U",
        "meta_norad_cat_id": 66483,
        "meta_element_set_no": 999,
        "meta_rev_at_epoch": 435,
        "meta_bstar": -0.036293,
        "meta_mean_motion_dot": -0.02130721,
        "meta_mean_motion_ddot": 0,
        "tle_line1": "1 66483U 25262AD  25338.75002315 -.02130721  00000+0 -36293-1 0  9999",
        "tle_line2": "2 66483  42.9998 117.7330 0001651 280.1689 103.5427 15.53909030  4358"
      },
      "geometry": {
        "type": "Point",
        "coordinates": [
          145.39588794477842,
          25.1943693136489
        ]
      }
    },
    {
      "type": "Feature",
      "properties": {
        "norad_id": 66484,
        "name": "STARLINK-35371",
        "group": "last-30-days",
        "lat": 26.312948152968545,
        "lon": 147.12250551990326,
        "alt_km": 407.77207752788763,
        "timestamp": "2025-12-05T04:52:14.141853+00:00",
        "meta_object_name": "STARLINK-35371",
        "meta_object_id": "2025-262AE",
        "meta_epoch": "2025-12-04T18:00:02.000160",
        "meta_mean_motion": 15.53910585,
        "meta_eccentricity": 0.0001466,
        "meta_inclination": 42.9997,
        "meta_ra_of_asc_node": 117.7296,
        "meta_arg_of_pericenter": 280.306,
        "meta_mean_anomaly": 105.3234,
        "meta_ephemeris_type": 0,
        "meta_classification_type": "U",
        "meta_norad_cat_id": 66484,
        "meta_element_set_no": 999,
        "meta_rev_at_epoch": 435,
        "meta_bstar": -0.036333,
        "meta_mean_motion_dot": -0.0213274,
        "meta_mean_motion_ddot": 0,
        "tle_line1": "1 66484U 25262AE  25338.75002315 -.02132740  00000+0 -36333-1 0  9998",
        "tle_line2": "2 66484  42.9997 117.7296 0001466 280.3060 105.3234 15.53910585  4351"
      },
      "geometry": {
        "type": "Point",
        "coordinates": [
          147.12250551990326,
          26.312948152968545
        ]
      }
    },
    {
      "type": "Feature",
      "properties": {
        "norad_id": 66485,
        "name": "STARLINK-34774",
        "group": "last-30-days",
        "lat": -17.817851944232295,
        "lon": 9.607891235080952,
        "alt_km": 377.2679104970439,
        "timestamp": "2025-12-05T04:52:14.141862+00:00",
        "meta_object_name": "STARLINK-34774",
        "meta_object_id": "2025-263A",
        "meta_epoch": "2025-12-04T18:00:02.000160",
        "meta_mean_motion": 15.66054012,
        "meta_eccentricity": 0.0001217,
        "meta_inclination": 42.9989,
        "meta_ra_of_asc_node": 172.1381,
        "meta_arg_of_pericenter": 270.4569,
        "meta_mean_anomaly": 261.2582,
        "meta_ephemeris_type": 0,
        "meta_classification_type": "U",
        "meta_norad_cat_id": 66485,
        "meta_element_set_no": 999,
        "meta_rev_at_epoch": 435,
        "meta_bstar": -0.021998,
        "meta_mean_motion_dot": -0.02034928,
        "meta_mean_motion_ddot": 0,
        "tle_line1": "1 66485U 25263A   25338.75002315 -.02034928  00000+0 -21998-1 0  9990",
        "tle_line2": "2 66485  42.9989 172.1381 0001217 270.4569 261.2582 15.66054012  4357"
      },
      "geometry": {
        "type": "Point",
        "coordinates": [
          9.607891235080952,
          -17.817851944232295
        ]
      }
    },
    {
      "type": "Feature",
      "properties": {
        "norad_id": 66486,
        "name": "STARLINK-34844",
        "group": "last-30-days",
        "lat": -19.03747152797137,
        "lon": 11.159507787018388,
        "alt_km": 377.3144491421972,
        "timestamp": "2025-12-05T04:52:14.141872+00:00",
        "meta_object_name": "STARLINK-34844",
        "meta_object_id": "2025-263B",
        "meta_epoch": "2025-12-04T18:00:02.000160",
        "meta_mean_motion": 15.660528,
        "meta_eccentricity": 0.0001241,
        "meta_inclination": 42.9989,
        "meta_ra_of_asc_node": 172.1324,
        "meta_arg_of_pericenter": 269.4426,
        "meta_mean_anomaly": 264.1899,
        "meta_ephemeris_type": 0,
        "meta_classification_type": "U",
        "meta_norad_cat_id": 66486,
        "meta_element_set_no": 999,
        "meta_rev_at_epoch": 430,
        "meta_bstar": -0.02198,
        "meta_mean_motion_dot": -0.02033389,
        "meta_mean_motion_ddot": 0,
        "tle_line1": "1 66486U 25263B   25338.75002315 -.02033389  00000+0 -21980-1 0  9992",
        "tle_line2": "2 66486  42.9989 172.1324 0001241 269.4426 264.1899 15.66052800  4303"
      },
      "geometry": {
        "type": "Point",
        "coordinates": [
          11.159507787018388,
          -19.03747152797137
        ]
      }
    },
    {
      "type": "Feature",
      "properties": {
        "norad_id": 66487,
        "name": "STARLINK-34733",
        "group": "last-30-days",
        "lat": -20.2610580618984,
        "lon": 12.756232681903912,
        "alt_km": 377.02533519673216,
        "timestamp": "2025-12-05T04:52:14.141883+00:00",
        "meta_object_name": "STARLINK-34733",
        "meta_object_id": "2025-263C",
        "meta_epoch": "2025-12-04T14:00:01.000224",
        "meta_mean_motion": 15.667801,
        "meta_eccentricity": 0.00016357,
        "meta_inclination": 42.9989,
        "meta_ra_of_asc_node": 173.1245,
        "meta_arg_of_pericenter": 258.8643,
        "meta_mean_anomaly": 55.6419,
        "meta_ephemeris_type": 0,
        "meta_classification_type": "U",
        "meta_norad_cat_id": 66487,
        "meta_element_set_no": 999,
        "meta_rev_at_epoch": 432,
        "meta_bstar": -0.021131499,
        "meta_mean_motion_dot": -0.02016602,
        "meta_mean_motion_ddot": 0,
        "tle_line1": "1 66487U 25263C   25338.58334491 -.02016602  00000+0 -21131-1 0  9994",
        "tle_line2": "2 66487  42.9989 173.1245 0001635 258.8643  55.6419 15.66780100  4321"
      },
      "geometry": {
        "type": "Point",
        "coordinates": [
          12.756232681903912,
          -20.2610580618984
        ]
      }
    }
  ]
}